$$SOE
2461295.500000000, A.D. 2026-Sep-12 00:00:00.0000, -3.413035033959851E+08, -2.570235549717167E+08, 9.108541710411152E+07,
2461302.500000000, A.D. 2026-Sep-19 00:00:00.0000, -3.349193264745564E+08, -2.649271388635757E+08, 9.019400568575911E+07,
2461309.500000000, A.D. 2026-Sep-26 00:00:00.0000, -3.283395886363636E+08, -2.726760356538279E+08, 8.924992881835125E+07,
2461316.500000000, A.D. 2026-Oct-03 00:00:00.0000, -3.215675767100167E+08, -2.802652617913100E+08, 8.825358676401085E+07,
2461323.500000000, A.D. 2026-Oct-10 00:00:00.0000, -3.146066887612769E+08, -2.876898809304245E+08, 8.720540718877551E+07,
2461330.500000000, A.D. 2026-Oct-17 00:00:00.0000, -3.074604346538468E+08, -2.949450059566006E+08, 8.610584541332296E+07,
2461337.500000000, A.D. 2026-Oct-24 00:00:00.0000, -3.001324366166095E+08, -3.020258011913571E+08, 8.495538466048940E+07,
2461344.500000000, A.D. 2026-Oct-31 00:00:00.0000, -2.926264297148121E+08, -3.089274848462501E+08, 8.375453628456919E+07,
2461351.500000000, A.D. 2026-Nov-07 00:00:00.0000, -2.849462618820899E+08, -3.156453316541592E+08, 8.250383995677882E+07,
2461358.500000000, A.D. 2026-Nov-14 00:00:00.0000, -2.770958933080949E+08, -3.221746747927558E+08, 8.120386386032775E+07,
2461365.500000000, A.D. 2026-Nov-21 00:00:00.0000, -2.690793969883689E+08, -3.285109064201102E+08, 7.985520511608922E+07,
2461372.500000000, A.D. 2026-Nov-28 00:00:00.0000, -2.609009614288256E+08, -3.346494798329234E+08, 7.845849028365332E+07,
2461379.500000000, A.D. 2026-Dec-05 00:00:00.0000, -2.525648918805199E+08, -3.405859139074471E+08, 7.701437555180238E+07,
2461386.500000000, A.D. 2026-Dec-12 00:00:00.0000, -2.440756099357358E+08, -3.463157967150422E+08, 7.552354685734662E+07,
2461393.500000000, A.D. 2026-Dec-19 00:00:00.0000, -2.354376533676736E+08, -3.518347883072290E+08, 7.398672010518679E+07,
2461400.500000000, A.D. 2026-Dec-26 00:00:00.0000, -2.266556763500624E+08, -3.571386235390855E+08, 7.240464143047914E+07,
2461407.500000000, A.D. 2027-Jan-02 00:00:00.0000, -2.177344497743145E+08, -3.622231151232197E+08, 7.077808746059836E+07,
2461414.500000000, A.D. 2027-Jan-09 00:00:00.0000, -2.086788615410091E+08, -3.670841568962222E+08, 6.910786556657761E+07,
2461421.500000000, A.D. 2027-Jan-16 00:00:00.0000, -1.994939167848930E+08, -3.717177272910979E+08, 6.739481410045651E+07,
2461428.500000000, A.D. 2027-Jan-23 00:00:00.0000, -1.901847379824135E+08, -3.761198930571945E+08, 6.563980260999013E+07,
2461435.500000000, A.D. 2027-Jan-30 00:00:00.0000, -1.807565647489763E+08, -3.802868132767705E+08, 6.384373200829187E+07,
2461442.500000000, A.D. 2027-Feb-06 00:00:00.0000, -1.712147528958454E+08, -3.842147433391843E+08, 6.200753468575437E+07,
2461449.500000000, A.D. 2027-Feb-13 00:00:00.0000, -1.615647732013565E+08, -3.879000376534304E+08, 6.013217470446636E+07,
2461456.500000000, A.D. 2027-Feb-20 00:00:00.0000, -1.518122122538471E+08, -3.913391518894265E+08, 5.821864822525971E+07,
2461463.500000000, A.D. 2027-Feb-27 00:00:00.0000, -1.419627739631436E+08, -3.945286479612371E+08, 5.626798377461430E+07,
2461470.500000000, A.D. 2027-Mar-06 00:00:00.0000, -1.320222787158004E+08, -3.974651998294774E+08, 5.428124222986594E+07,
2461477.500000000, A.D. 2027-Mar-13 00:00:00.0000, -1.219966617675958E+08, -4.001455980710150E+08, 5.225951683474272E+07,
2461484.500000000, A.D. 2027-Mar-20 00:00:00.0000, -1.118919719940930E+08, -4.025667540456868E+08, 5.020393327765884E+07,
2461491.500000000, A.D. 2027-Mar-27 00:00:00.0000, -1.017143707864242E+08, -4.047257042037349E+08, 4.811564976623012E+07,
2461498.500000000, A.D. 2027-Apr-03 00:00:00.0000, -9.147013087734845E+07, -4.066196145780078E+08, 4.599585707274553E+07,
2461505.500000000, A.D. 2027-Apr-10 00:00:00.0000, -8.116563502472946E+07, -4.082457854363345E+08, 4.384577854482627E+07,
2461512.500000000, A.D. 2027-Apr-17 00:00:00.0000, -7.080737452051938E+07, -4.096016561078274E+08, 4.166667007658602E+07,
2461519.500000000, A.D. 2027-Apr-24 00:00:00.0000, -6.040194743784583E+07, -4.106848100436514E+08, 3.945982002643886E+07,
2461526.500000000, A.D. 2027-May-01 00:00:00.0000, -4.995605630879072E+07, -4.114929800805923E+08, 3.722654905438074E+07,
2461533.500000000, A.D. 2027-May-08 00:00:00.0000, -3.947650491715485E+07, -4.120240531531430E+08, 3.496820990926266E+07,
2461540.500000000, A.D. 2027-May-15 00:00:00.0000, -2.897019569408466E+07, -4.122760734929518E+08, 3.268618737844239E+07,
2461547.500000000, A.D. 2027-May-22 00:00:00.0000, -1.844412927034851E+07, -4.122472468978465E+08, 3.038189832833013E+07,
2461554.500000000, A.D. 2027-May-29 00:00:00.0000, -7.905402818436779E+06, -4.119359475298834E+08, 2.805679140509570E+07,
2461561.500000000, A.D. 2027-Jun-05 00:00:00.0000, 2.638793710357178E+06, -4.113407241029983E+08, 2.571234656779502E+07,
2461568.500000000, A.D. 2027-Jun-12 00:00:00.0000, 1.318118145513114E+07, -4.104603050194242E+08, 2.335007467077084E+07,
2461575.500000000, A.D. 2027-Jun-19 00:00:00.0000, 2.371439629817444E+07, -4.092936033787450E+08, 2.097151704652862E+07,
2461582.500000000, A.D. 2027-Jun-26 00:00:00.0000, 3.423099258893653E+07, -4.078397221080102E+08, 1.857824503928380E+07,
2461589.500000000, A.D. 2027-Jul-03 00:00:00.0000, 4.472344707950233E+07, -4.060979591899761E+08, 1.617185947492132E+07,
2461596.500000000, A.D. 2027-Jul-10 00:00:00.0000, 5.518416311727931E+07, -4.040678129648422E+08, 1.375399006199482E+07,
2461603.500000000, A.D. 2027-Jul-17 00:00:00.0000, 6.560547514086410E+07, -4.017489875285287E+08, 1.132629471489319E+07,
2461610.500000000, A.D. 2027-Jul-24 00:00:00.0000, 7.597965364487191E+07, -3.991413982755573E+08, 8.890458777755380E+06,
2461617.500000000, A.D. 2027-Jul-31 00:00:00.0000, 8.629891103305659E+07, -3.962451773368967E+08, 6.448194128918618E+06,
2461624.500000000, A.D. 2027-Aug-07 00:00:00.0000, 9.655540816493452E+07, -3.930606777462285E+08, 4.001238276600718E+06,
2461631.500000000, A.D. 2027-Aug-14 00:00:00.0000, 1.067412592989359E+08, -3.895884765707577E+08, 1.551353634046078E+06,
2461638.500000000, A.D. 2027-Aug-21 00:00:00.0000, 1.168485360538734E+08, -3.858293803506755E+08, -8.996733598516583E+05,
2461645.500000000, A.D. 2027-Aug-28 00:00:00.0000, 1.268692738235893E+08, -3.817844316239443E+08, -3.350033493008971E+06,
2461652.500000000, A.D. 2027-Sep-04 00:00:00.0000, 1.367954794661896E+08, -3.774549140146332E+08, -5.797896094816983E+06,
2461659.500000000, A.D. 2027-Sep-11 00:00:00.0000, 1.466191388733607E+08, -3.728423565252343E+08, -8.241410340934187E+06,
2461666.500000000, A.D. 2027-Sep-18 00:00:00.0000, 1.563322245525801E+08, -3.679485376606938E+08, -1.067870661527263E+07,
2461673.500000000, A.D. 2027-Sep-25 00:00:00.0000, 1.659267034494812E+08, -3.627754894384211E+08, -1.310789795798887E+07,
2461680.500000000, A.D. 2027-Oct-02 00:00:00.0000, 1.753945450822434E+08, -3.573255012324625E+08, -1.552708160531822E+07,
2461687.500000000, A.D. 2027-Oct-09 00:00:00.0000, 1.847277300057764E+08, -3.516011234308757E+08, -1.793434062459050E+07,
2461694.500000000, A.D. 2027-Oct-16 00:00:00.0000, 1.939182586634387E+08, -3.456051709348718E+08, -2.032774565526067E+07,
2461701.500000000, A.D. 2027-Oct-23 00:00:00.0000, 2.029581608804116E+08, -3.393407264799240E+08, -2.270535678038813E+07,
2461708.500000000, A.D. 2027-Oct-30 00:00:00.0000, 2.118395063661630E+08, -3.328111431450827E+08, -2.506522551280273E+07,
2461715.500000000, A.D. 2027-Nov-06 00:00:00.0000, 2.205544150519711E+08, -3.260200448999403E+08, -2.740539669650328E+07,
2461722.500000000, A.D. 2027-Nov-13 00:00:00.0000, 2.290950652633121E+08, -3.189713272413366E+08, -2.972391030993335E+07,
2461729.500000000, A.D. 2027-Nov-20 00:00:00.0000, 2.374537026114860E+08, -3.116691600791827E+08, -3.201880361436325E+07,
2461736.500000000, A.D. 2027-Nov-27 00:00:00.0000, 2.456226512031302E+08, -3.041179898808967E+08, -3.428811355117230E+07,
2461743.500000000, A.D. 2027-Dec-04 00:00:00.0000, 2.535943251227631E+08, -2.963225401346660E+08, -3.652987912463026E+07,
2461750.500000000, A.D. 2027-Dec-11 00:00:00.0000, 2.613612396153112E+08, -2.882878110684348E+08, -3.874214379461096E+07,
2461757.500000000, A.D. 2027-Dec-18 00:00:00.0000, 2.689160222220477E+08, -2.800190789377103E+08, -4.092295792798865E+07,
2461764.500000000, A.D. 2027-Dec-25 00:00:00.0000, 2.762514240007275E+08, -2.715218948624610E+08, -4.307038131870037E+07,
2461771.500000000, A.D. 2028-Jan-01 00:00:00.0000, 2.833603308476138E+08, -2.628020831811634E+08, -4.518248577490081E+07,
$$EOE